     2.11           N: GPS NAV DATA                         RINEX VERSION / TYPE
CONVBIN 2.4.3                           20210829 054944 UTC PGM / RUN BY / DATE 
log: logs/21_08_29_03_22_49_brdc.rtcm                       COMMENT             
format: RTCM 3                                              COMMENT             
                                                            END OF HEADER       
13 21  8 29  4  0  0.0  .177851878107E-03  .522959453519E-11  .000000000000E+00
     .210000000000E+02 -.229062500000E+02  .445661420730E-08 -.129894659621E+01
    -.109709799290E-05  .533276877832E-02  .813230872154E-05  .515367958832E+04
     .144000000000E+05  .115483999252E-06 -.297181306977E+01  .726431608200E-07
     .968642157022E+00  .224781250000E+03  .960248468512E+00 -.790818655057E-08
    -.110718897601E-09  .100000000000E+01  .217300000000E+04  .000000000000E+00
     .200000000000E+01  .000000000000E+00 -.111758708954E-07  .210000000000E+02
     .000000000000E+00  .400000000000E+01
14 21  8 29  4  0  0.0  .132829882205E-04 -.841282599140E-11  .000000000000E+00
     .930000000000E+02  .541250000000E+02  .488270338419E-08  .192302911070E+01
     .290572643280E-05  .106855959166E-02  .526383519173E-05  .515364906120E+04
     .144000000000E+05  .596046447754E-07 -.966639972229E+00  .968575477600E-07
     .955713595090E+00  .275625000000E+03  .308510452820E+01 -.835391940285E-08
    -.278583032673E-10  .100000000000E+01  .217300000000E+04  .000000000000E+00
     .200000000000E+01  .000000000000E+00 -.791624188423E-08  .861000000000E+03
     .000000000000E+00  .400000000000E+01
15 21  8 29  4  0  0.0 -.125029124320E-03  .272848410532E-11  .000000000000E+00
     .760000000000E+02 -.271875000000E+02  .532522181686E-08 -.164820705535E+01
    -.134482979774E-05  .135596379405E-01  .648945569992E-05  .515366380692E+04
     .144000000000E+05  .279396772385E-06  .305980917219E+01 -.931322574615E-08
     .929699510356E+00  .228687500000E+03  .101785430428E+01 -.828355932921E-08
     .121433629627E-10  .100000000000E+01  .217300000000E+04  .000000000000E+00
     .200000000000E+01  .000000000000E+00 -.107102096081E-07  .760000000000E+02
     .000000000000E+00  .400000000000E+01
16 21  8 29  4  0  0.0 -.381504651159E-03 -.636646291241E-11  .000000000000E+00
     .940000000000E+02  .520937500000E+02  .455983279248E-08  .132316059975E+00
     .288151204586E-05  .121855421457E-01  .536814332008E-05  .515374856186E+04
     .144000000000E+05 -.931322574615E-08 -.919320327485E+00  .104308128357E-06
     .972316615176E+00  .279375000000E+03  .680262321119E+00 -.834963351004E-08
    -.878608026122E-10  .100000000000E+01  .217300000000E+04  .000000000000E+00
     .200000000000E+01  .000000000000E+00 -.102445483208E-07  .940000000000E+02
     .000000000000E+00  .400000000000E+01
17 21  8 29  4  0  0.0  .496526714414E-03  .579802872380E-11  .000000000000E+00
     .630000000000E+02 -.238750000000E+02  .420053211188E-08 -.713755147361E+00
    -.120140612125E-05  .134886177257E-01  .582262873650E-05  .515365349197E+04
     .144000000000E+05 -.154599547386E-06  .982419695667E-01  .409781932831E-07
     .981674093135E+00  .281468750000E+03 -.155984816827E+01 -.824427197845E-08
    -.212866009581E-09  .100000000000E+01  .217300000000E+04  .000000000000E+00
     .280000000000E+01  .000000000000E+00 -.111758708954E-07  .630000000000E+02
     .000000000000E+00  .400000000000E+01
18 21  8 29  4  0  0.0  .328212045133E-03 -.386535248253E-11  .000000000000E+00
     .187000000000E+03 -.385937500000E+02  .414124392800E-08 -.264951578395E+01
    -.197067856789E-05  .187236734200E-02  .903755426407E-05  .515365259361E+04
     .144000000000E+05 -.558793544769E-08  .110543676222E+01  .931322574615E-08
     .968896235172E+00  .209000000000E+03  .292091240784E+01 -.787961393183E-08
     .110004582132E-09  .100000000000E+01  .217300000000E+04  .000000000000E+00
     .200000000000E+01  .000000000000E+00 -.838190317154E-08  .187000000000E+03
     .000000000000E+00  .400000000000E+01
19 21  8 29  4  0  0.0  .457782298326E-04  .500222085975E-11  .000000000000E+00
     .160000000000E+02 -.365625000000E+02  .411802867528E-08  .166611280545E+01
    -.215694308281E-05  .917562784161E-02  .535324215889E-05  .515364941025E+04
     .144000000000E+05  .171363353729E-06  .143266544541E+00 -.100582838058E-06
     .980284726188E+00  .283187500000E+03  .192931237019E+01 -.790211486909E-08
    -.333585323739E-09  .100000000000E+01  .217300000000E+04  .000000000000E+00
     .200000000000E+01  .000000000000E+00 -.153668224812E-07  .160000000000E+02
     .000000000000E+00  .400000000000E+01
20 21  8 29  4  0  0.0  .519407447428E-03 -.227373675443E-12  .000000000000E+00
     .940000000000E+02 -.546875000000E+01  .495949229705E-08 -.180584149035E+01
    -.251457095146E-06  .551616703160E-02  .690482556820E-05  .515364236450E+04
     .144000000000E+05 -.726431608200E-07  .198317566067E+01 -.223517417908E-07
     .939303239853E+00  .234531250000E+03  .297399628921E+01 -.829034532616E-08
     .400016662300E-09  .100000000000E+01  .217300000000E+04  .000000000000E+00
     .200000000000E+01  .000000000000E+00 -.838190317154E-08  .940000000000E+02
     .000000000000E+00  .400000000000E+01
21 21  8 29  4  0  0.0  .139812007546E-03  .204636307899E-11  .000000000000E+00
     .410000000000E+02 -.363125000000E+02  .445197115675E-08 -.620392590367E+00
    -.188685953617E-05  .240550222807E-01  .817142426968E-05  .515364760399E+04
     .144000000000E+05 -.435858964920E-06  .100881002684E+01 -.372529029846E-07
     .957937477804E+00  .227468750000E+03 -.109238771874E+01 -.836713423901E-08
     .248581783000E-09  .100000000000E+01  .217300000000E+04  .000000000000E+00
     .200000000000E+01  .000000000000E+00 -.102445483208E-07  .410000000000E+02
     .000000000000E+00  .400000000000E+01
22 21  8 29  4  0  0.0 -.526658724993E-03  .932232069317E-11  .000000000000E+00
     .940000000000E+02 -.101250000000E+02  .502056626959E-08 -.184721272147E+01
    -.389292836189E-06  .677788222674E-02  .692158937454E-05  .515374934959E+04
     .144000000000E+05 -.106170773506E-06  .202938626722E+01  .763684511185E-07
     .936018134421E+00  .233937500000E+03 -.900395470617E+00 -.834963351004E-08
     .325370695853E-09  .100000000000E+01  .217300000000E+04  .000000000000E+00
     .200000000000E+01  .000000000000E+00 -.176951289177E-07  .940000000000E+02
     .000000000000E+00  .400000000000E+01
23 21  8 29  4  0  0.0  .645988620818E-04 -.500222085975E-11  .000000000000E+00
     .205000000000E+03 -.132187500000E+02  .444839957941E-08  .289657642766E+01
    -.627711415291E-06  .159787468147E-02  .664032995701E-05  .515366614151E+04
     .144000000000E+05 -.186264514923E-08  .210534360422E+01  .279396772385E-07
     .965219709915E+00  .250093750000E+03  .265435379009E+01 -.801604818630E-08
     .323584907182E-09  .100000000000E+01  .217300000000E+04  .000000000000E+00
     .200000000000E+01  .000000000000E+00 -.838190317154E-08  .461000000000E+03
     .000000000000E+00  .400000000000E+01
24 21  8 29  4  0  0.0  .221310649067E-03  .989075488178E-11  .000000000000E+00
     .540000000000E+02  .375937500000E+02  .505056751927E-08 -.261929443460E+01
     .167265534401E-05  .114394647535E-01  .983662903309E-05  .515371848869E+04
     .144000000000E+05  .126659870148E-06 -.212968656252E+01 -.238418579102E-06
     .934727104827E+00  .175156250000E+03  .752525004384E+00 -.807819363205E-08
     .164292557730E-10  .100000000000E+01  .217300000000E+04  .000000000000E+00
     .200000000000E+01  .000000000000E+00  .279396772385E-08  .540000000000E+02
     .000000000000E+00  .400000000000E+01
25 21  8 29  4  0  0.0  .199138652533E-03  .636646291241E-11  .000000000000E+00
     .190000000000E+02  .689375000000E+02  .477269880206E-08  .177387455204E+01
     .340119004250E-05  .984153291211E-02  .558234751225E-05  .515358125687E+04
     .144000000000E+05 -.242143869400E-06 -.101269059845E+01 -.139698386192E-06
     .959610276351E+00  .271187500000E+03  .969967034152E+00 -.828284501374E-08
     .582167106740E-10  .100000000000E+01  .217300000000E+04  .000000000000E+00
     .200000000000E+01  .000000000000E+00  .558793544769E-08  .190000000000E+02
     .000000000000E+00  .400000000000E+01
26 21  8 29  4  0  0.0  .128044746816E-03  .432009983342E-11  .000000000000E+00
     .130000000000E+02  .673750000000E+02  .522628912449E-08  .110234654088E+01
     .369548797607E-05  .602723704651E-02  .572763383389E-05  .515361796188E+04
     .144000000000E+05  .707805156708E-07 -.105650670946E+01  .260770320892E-07
     .940482757053E+00  .254875000000E+03  .295028048097E+00 -.858178603726E-08
    -.707172313708E-10  .100000000000E+01  .217300000000E+04  .000000000000E+00
     .200000000000E+01  .000000000000E+00  .698491930962E-08  .130000000000E+02
     .000000000000E+00  .400000000000E+01
27 21  8 29  4  0  0.0 -.185155309737E-03 -.545696821064E-11  .000000000000E+00
     .850000000000E+02 -.237812500000E+02  .428803575676E-08 -.797644948451E+00
    -.128708779812E-05  .945915328339E-02  .517815351486E-05  .515369173241E+04
     .144000000000E+05  .184401869774E-06  .369437241801E-01  .173225998878E-06
     .975392217572E+00  .288031250000E+03  .634831215840E+00 -.815962559544E-08
    -.312513017422E-09  .100000000000E+01  .217300000000E+04  .000000000000E+00
     .200000000000E+01  .000000000000E+00  .186264514923E-08  .850000000000E+02
     .000000000000E+00  .400000000000E+01
